MOLNIYA-2
1 07376U 74056A   22288.73100598  .00000155  00000-0  00000-0 0  9991
2 07376  64.2669  82.2793 6751267 285.7638  13.7034  2.01059599352774
MOLNIYA-3
1 07780U 75036A   22289.80229044 -.00000099  00000-0 -13578+0 0  9998
2 07780  63.4135 201.8410 6855378 288.3291  12.3760  2.00611996348050
MOLNIYA-5
1 08601U 76006A   22290.00923031 -.00000135  00000-0 -69632-2 0  9996
2 08601  63.4794 280.8409 7209590 283.8975  11.2171  1.99945969 55098